{
    "links": {
        "self": "http://www.neowsapp.com/rest/v1/neo/3408589?api_key=iIulBulltgU6a56xZRHN4H3l9WmuAYTsLGpBGhQ2"
    },
    "id": "3408589",
    "neo_reference_id": "3408589",
    "name": "(2008 GX3)",
    "designation": "2008 GX3",
    "nasa_jpl_url": "http://ssd.jpl.nasa.gov/sbdb.cgi?sstr=3408589",
    "absolute_magnitude_h": 26.3,
    "estimated_diameter": {
        "kilometers": {
            "estimated_diameter_min": 0.0146067964,
            "estimated_diameter_max": 0.0326617897
        },
        "meters": {
            "estimated_diameter_min": 14.6067964271,
            "estimated_diameter_max": 32.6617897446
        },
        "miles": {
            "estimated_diameter_min": 0.0090762397,
            "estimated_diameter_max": 0.020295089
        },
        "feet": {
            "estimated_diameter_min": 47.92256199,
            "estimated_diameter_max": 107.1581062656
        }
    },
    "is_potentially_hazardous_asteroid": false,
    "close_approach_data": [
        {
            "close_approach_date": "2008-04-11",
            "close_approach_date_full": "2008-Apr-11 22:44",
            "epoch_date_close_approach": 1207953840000,
            "relative_velocity": {
                "kilometers_per_second": "9.0945118289",
                "kilometers_per_hour": "32740.2425840401",
                "miles_per_hour": "20343.5135100665"
            },
            "miss_distance": {
                "astronomical": "0.0186805514",
                "lunar": "7.2667344946",
                "kilometers": "2794570.699865518",
                "miles": "1736465.7119114284"
            },
            "orbiting_body": "Earth"
        }
    ],
    "orbital_data": {
        "orbit_id": "8",
        "orbit_determination_date": "2017-04-06 09:03:45",
        "first_observation_date": "2008-04-08",
        "last_observation_date": "2008-04-12",
        "data_arc_in_days": 4,
        "observations_used": 15,
        "orbit_uncertainty": "8",
        "minimum_orbit_intersection": ".0136534",
        "jupiter_tisserand_invariant": "3.797",
        "epoch_osculation": "2454566.5",
        "eccentricity": ".477115537817856",
        "semi_major_axis": "1.890243710534727",
        "inclination": "9.543762776132173",
        "ascending_node_longitude": "196.8675535403994",
        "orbital_period": "949.238030152434",
        "perihelion_distance": ".9883790659761308",
        "perihelion_argument": "25.03345543521958",
        "aphelion_distance": "2.792108355093322",
        "perihelion_time": "2454585.190535938007",
        "mean_anomaly": "352.9115851620462",
        "mean_motion": ".3792515560530051",
        "equinox": "J2000",
        "orbit_class": {
            "orbit_class_type": "APO",
            "orbit_class_description": "Near-Earth asteroid orbits which cross the Earth’s orbit similar to that of 1862 Apollo",
            "orbit_class_range": "a (semi-major axis) > 1.0 AU; q (perihelion) < 1.017 AU"
        }
    },
    "is_sentry_object": false
}